{"type": "FeatureCollection", "features": [ {"type": "Feature", "properties": {"norad_id": 34529, "name": "IRIDIUM 33 DEB", "group": "iridium-33-debris", "lat": -44.19147484887841, "lon": 28.512009097508273, "alt_km": 767.089636640585, "timestamp": "2025-12-20T14:38:02.354460+00:00", "meta": {"OBJECT_NAME": "IRIDIUM 33 DEB", "OBJECT_ID": "1997-051HW", "EPOCH": "2025-12-20T03:10:13.579104", "MEAN_MOTION": 14.40621204, "ECCENTRICITY": 0.00056835, "INCLINATION": 86.3633, "RA_OF_ASC_NODE": 32.2604, "ARG_OF_PERICENTER": 154.9999, "MEAN_ANOMALY": 205.1477, "EPHEMERIS_TYPE": 0, "CLASSIFICATION_TYPE": "U", "NORAD_CAT_ID": 34529, "ELEMENT_SET_NO": 999, "REV_AT_EPOCH": 88248, "BSTAR": 8.3294871e-05, "MEAN_MOTION_DOT": 2.86e-06, "MEAN_MOTION_DDOT": 0}, "tle": {"line1": "1 34529U 97051HW  25354.13210161  .00000286  00000+0  83295-4 0  9995", "line2": "2 34529  86.3633  32.2604 0005683 154.9999 205.1477 14.40621204882489"}}, "geometry": {"type": "Point", "coordinates": [28.512009097508273, -44.19147484887841]}}, {"type": "Feature", "properties": {"norad_id": 34538, "name": "IRIDIUM 33 DEB", "group": "iridium-33-debris", "lat": -30.612855722727602, "lon": -175.68284749280136, "alt_km": 755.771745687638, "timestamp": "2025-12-20T14:38:02.354471+00:00", "meta": {"OBJECT_NAME": "IRIDIUM 33 DEB", "OBJECT_ID": "1997-051JF", "EPOCH": "2025-12-20T00:28:24.612384", "MEAN_MOTION": 14.42687495, "ECCENTRICITY": 0.00321898, "INCLINATION": 86.2759, "RA_OF_ASC_NODE": 2.3669, "ARG_OF_PERICENTER": 302.8959, "MEAN_ANOMALY": 85.6227, "EPHEMERIS_TYPE": 0, "CLASSIFICATION_TYPE": "U", "NORAD_CAT_ID": 34538, "ELEMENT_SET_NO": 999, "REV_AT_EPOCH": 87861, "BSTAR": 0.00063104515, "MEAN_MOTION_DOT": 2.13e-05, "MEAN_MOTION_DDOT": 0}, "tle": {"line1": "1 34538U 97051JF  25354.01972931  .00002130  00000+0  63105-3 0  9999", "line2": "2 34538  86.2759   2.3669 0032189 302.8959  85.6227 14.42687495878617"}}, "geometry": {"type": "Point", "coordinates": [-175.68284749280136, -30.612855722727602]}}, {"type": "Feature", "properties": {"norad_id": 34540, "name": "IRIDIUM 33 DEB", "group": "iridium-33-debris", "lat": 64.71791861837669, "lon": 116.15575919430586, "alt_km": 625.7256864972233, "timestamp": "2025-12-20T14:38:02.354481+00:00", "meta": {"OBJECT_NAME": "IRIDIUM 33 DEB", "OBJECT_ID": "1997-051JH", "EPOCH": "2025-12-19T20:29:06.527328", "MEAN_MOTION": 14.75455566, "ECCENTRICITY": 0.00175023, "INCLINATION": 86.3106, "RA_OF_ASC_NODE": 304.3534, "ARG_OF_PERICENTER": 135.0106, "MEAN_ANOMALY": 285.9801, "EPHEMERIS_TYPE": 0, "CLASSIFICATION_TYPE": "U", "NORAD_CAT_ID": 34540, "ELEMENT_SET_NO": 999, "REV_AT_EPOCH": 89126, "BSTAR": 0.00097623982, "MEAN_MOTION_DOT": 6.676e-05, "MEAN_MOTION_DDOT": 0}, "tle": {"line1": "1 34540U 97051JH  25353.85354777  .00006676  00000+0  97624-3 0  9997", "line2": "2 34540  86.3106 304.3534 0017502 135.0106 285.9801 14.75455566891262"}}, "geometry": {"type": "Point", "coordinates": [116.15575919430586, 64.71791861837669]}}, {"type": "Feature", "properties": {"norad_id": 34648, "name": "IRIDIUM 33 DEB", "group": "iridium-33-debris", "lat": -76.24046868677615, "lon": 113.70469364901703, "alt_km": 736.3439665528831, "timestamp": "2025-12-20T14:38:02.354491+00:00", "meta": {"OBJECT_NAME": "IRIDIUM 33 DEB", "OBJECT_ID": "1997-051JZ", "EPOCH": "2025-12-20T01:30:04.009824", "MEAN_MOTION": 14.11697564, "ECCENTRICITY": 0.01804111, "INCLINATION": 86.3908, "RA_OF_ASC_NODE": 278.9892, "ARG_OF_PERICENTER": 275.9673, "MEAN_ANOMALY": 82.0975, "EPHEMERIS_TYPE": 0, "CLASSIFICATION_TYPE": "U", "NORAD_CAT_ID": 34648, "ELEMENT_SET_NO": 999, "REV_AT_EPOCH": 85064, "BSTAR": 0.0043645055, "MEAN_MOTION_DOT": 9.277e-05, "MEAN_MOTION_DDOT": 0}, "tle": {"line1": "1 34648U 97051JZ  25354.06254641  .00009277  00000+0  43645-2 0  9992", "line2": "2 34648  86.3908 278.9892 0180411 275.9673  82.0975 14.11697564850648"}}, "geometry": {"type": "Point", "coordinates": [113.70469364901703, -76.24046868677615]}}, {"type": "Feature", "properties": {"norad_id": 34651, "name": "IRIDIUM 33 DEB", "group": "iridium-33-debris", "lat": -1.5359009772483594, "lon": 137.129531532019, "alt_km": 910.7865811444208, "timestamp": "2025-12-20T14:38:02.354501+00:00", "meta": {"OBJECT_NAME": "IRIDIUM 33 DEB", "OBJECT_ID": "1997-051KC", "EPOCH": "2025-12-19T16:44:48.420096", "MEAN_MOTION": 14.25922062, "ECCENTRICITY": 0.01422464, "INCLINATION": 86.2827, "RA_OF_ASC_NODE": 137.6175, "ARG_OF_PERICENTER": 181.9677, "MEAN_ANOMALY": 178.0974, "EPHEMERIS_TYPE": 0, "CLASSIFICATION_TYPE": "U", "NORAD_CAT_ID": 34651, "ELEMENT_SET_NO": 999, "REV_AT_EPOCH": 85995, "BSTAR": 0.0022061693, "MEAN_MOTION_DOT": 5.865e-05, "MEAN_MOTION_DDOT": 0}, "tle": {"line1": "1 34651U 97051KC  25353.69778264  .00005865  00000+0  22062-2 0  9995", "line2": "2 34651  86.2827 137.6175 0142246 181.9677 178.0974 14.25922062859957"}}, "geometry": {"type": "Point", "coordinates": [137.129531532019, -1.5359009772483594]}}, {"type": "Feature", "properties": {"norad_id": 34652, "name": "IRIDIUM 33 DEB", "group": "iridium-33-debris", "lat": -5.681819220932337, "lon": -23.868933884891195, "alt_km": 688.4424966931783, "timestamp": "2025-12-20T14:38:02.354511+00:00", "meta": {"OBJECT_NAME": "IRIDIUM 33 DEB", "OBJECT_ID": "1997-051KD", "EPOCH": "2025-12-19T17:51:26.256096", "MEAN_MOTION": 14.62117993, "ECCENTRICITY": 0.00255284, "INCLINATION": 86.331, "RA_OF_ASC_NODE": 336.8822, "ARG_OF_PERICENTER": 272.5866, "MEAN_ANOMALY": 207.7977, "EPHEMERIS_TYPE": 0, "CLASSIFICATION_TYPE": "U", "NORAD_CAT_ID": 34652, "ELEMENT_SET_NO": 999, "REV_AT_EPOCH": 88586, "BSTAR": 0.00063186757, "MEAN_MOTION_DOT": 3.211e-05, "MEAN_MOTION_DDOT": 0}, "tle": {"line1": "1 34652U 97051KD  25353.74405389  .00003211  00000+0  63187-3 0  9994", "line2": "2 34652  86.3310 336.8822 0025528 272.5866 207.7977 14.62117993885860"}}, "geometry": {"type": "Point", "coordinates": [-23.868933884891195, -5.681819220932337]}}, {"type": "Feature", "properties": {"norad_id": 34690, "name": "IRIDIUM 33 DEB", "group": "iridium-33-debris", "lat": 19.260464733801037, "lon": 34.83959611571517, "alt_km": 702.3659312397331, "timestamp": "2025-12-20T14:38:02.354522+00:00", "meta": {"OBJECT_NAME": "IRIDIUM 33 DEB", "OBJECT_ID": "1997-051KM", "EPOCH": "2025-12-19T02:30:15.635232", "MEAN_MOTION": 14.55118004, "ECCENTRICITY": 0.00100928, "INCLINATION": 86.3778, "RA_OF_ASC_NODE": 34.2255, "ARG_OF_PERICENTER": 8.472, "MEAN_ANOMALY": 50.0408, "EPHEMERIS_TYPE": 0, "CLASSIFICATION_TYPE": "U", "NORAD_CAT_ID": 34690, "ELEMENT_SET_NO": 999, "REV_AT_EPOCH": 88187, "BSTAR": 0.00032814485, "MEAN_MOTION_DOT": 1.438e-05, "MEAN_MOTION_DDOT": 0}, "tle": {"line1": "1 34690U 97051KM  25353.10434763  .00001438  00000+0  32814-3 0  9996", "line2": "2 34690  86.3778  34.2255 0010092   8.4720  50.0408 14.55118004881875"}}, "geometry": {"type": "Point", "coordinates": [34.83959611571517, 19.260464733801037]}}, {"type": "Feature", "properties": {"norad_id": 34693, "name": "IRIDIUM 33 DEB", "group": "iridium-33-debris", "lat": -5.678447298563465, "lon": -60.459537937407575, "alt_km": 474.4312863209334, "timestamp": "2025-12-20T14:38:02.354532+00:00", "meta": {"OBJECT_NAME": "IRIDIUM 33 DEB", "OBJECT_ID": "1997-051KQ", "EPOCH": "2025-12-19T21:40:09.433344", "MEAN_MOTION": 15.29576103, "ECCENTRICITY": 0.0012454, "INCLINATION": 86.3023, "RA_OF_ASC_NODE": 300.2612, "ARG_OF_PERICENTER": 40.9264, "MEAN_ANOMALY": 23.8115, "EPHEMERIS_TYPE": 0, "CLASSIFICATION_TYPE": "U", "NORAD_CAT_ID": 34693, "ELEMENT_SET_NO": 999, "REV_AT_EPOCH": 89024, "BSTAR": 0.0029727, "MEAN_MOTION_DOT": 0.00086209, "MEAN_MOTION_DDOT": 0}, "tle": {"line1": "1 34693U 97051KQ  25353.90288696  .00086209  00000+0  29727-2 0  9996", "line2": "2 34693  86.3023 300.2612 0012454  40.9264  23.8115 15.29576103890246"}}, "geometry": {"type": "Point", "coordinates": [-60.459537937407575, -5.678447298563465]}}, {"type": "Feature", "properties": {"norad_id": 34696, "name": "IRIDIUM 33 DEB", "group": "iridium-33-debris", "lat": 84.02541569028304, "lon": 63.49235572256637, "alt_km": 638.4894633777258, "timestamp": "2025-12-20T14:38:02.354542+00:00", "meta": {"OBJECT_NAME": "IRIDIUM 33 DEB", "OBJECT_ID": "1997-051KT", "EPOCH": "2025-12-20T03:03:36.896832", "MEAN_MOTION": 14.65425134, "ECCENTRICITY": 0.0073881, "INCLINATION": 86.1833, "RA_OF_ASC_NODE": 24.0835, "ARG_OF_PERICENTER": 142.6074, "MEAN_ANOMALY": 281.0712, "EPHEMERIS_TYPE": 0, "CLASSIFICATION_TYPE": "U", "NORAD_CAT_ID": 34696, "ELEMENT_SET_NO": 999, "REV_AT_EPOCH": 86781, "BSTAR": 0.0025217059, "MEAN_MOTION_DOT": 0.00014237, "MEAN_MOTION_DDOT": 0}, "tle": {"line1": "1 34696U 97051KT  25354.12751038  .00014237  00000+0  25217-2 0  9991", "line2": "2 34696  86.1833  24.0835 0073881 142.6074 281.0712 14.65425134867818"}}, "geometry": {"type": "Point", "coordinates": [63.49235572256637, 84.02541569028304]}}, {"type": "Feature", "properties": {"norad_id": 34765, "name": "IRIDIUM 33 DEB", "group": "iridium-33-debris", "lat": -5.995975772322543, "lon": 28.999360419815005, "alt_km": 771.997687497219, "timestamp": "2025-12-20T14:38:02.354552+00:00", "meta": {"OBJECT_NAME": "IRIDIUM 33 DEB", "OBJECT_ID": "1997-051LJ", "EPOCH": "2025-12-18T13:21:25.941600", "MEAN_MOTION": 14.40479279, "ECCENTRICITY": 0.00160914, "INCLINATION": 86.3386, "RA_OF_ASC_NODE": 30.2656, "ARG_OF_PERICENTER": 191.4295, "MEAN_ANOMALY": 322.071, "EPHEMERIS_TYPE": 0, "CLASSIFICATION_TYPE": "U", "NORAD_CAT_ID": 34765, "ELEMENT_SET_NO": 999, "REV_AT_EPOCH": 87697, "BSTAR": 0.00029987235, "MEAN_MOTION_DOT": 9.74e-06, "MEAN_MOTION_DDOT": 0}, "tle": {"line1": "1 34765U 97051LJ  25352.55655025  .00000974  00000+0  29987-3 0  9994", "line2": "2 34765  86.3386  30.2656 0016091 191.4295 322.0710 14.40479279876970"}}, "geometry": {"type": "Point", "coordinates": [28.999360419815005, -5.995975772322543]}}]}